[{"OBJECT_NAME":"STARLINK-34507","OBJECT_ID":"2025-129AB","EPOCH":"2025-09-04T22:02:44.503296","MEAN_MOTION":14.98335991,"ECCENTRICITY":0.00028772,"INCLINATION":70.0016,"RA_OF_ASC_NODE":182.7261,"ARG_OF_PERICENTER":265.2611,"MEAN_ANOMALY":94.822,"EPHEMERIS_TYPE":0,"CLASSIFICATION_TYPE":"U","NORAD_CAT_ID":64437,"ELEMENT_SET_NO":999,"REV_AT_EPOCH":1346,"BSTAR":0.00046760161,"MEAN_MOTION_DOT":5.492e-5,"MEAN_MOTION_DDOT":0},{"OBJECT_NAME":"STARLINK-34465","OBJECT_ID":"2025-130A","EPOCH":"2025-09-04T05:28:52.666176","MEAN_MOTION":15.39631098,"ECCENTRICITY":0.00022528,"INCLINATION":53.1588,"RA_OF_ASC_NODE":238.2863,"ARG_OF_PERICENTER":77.8322,"MEAN_ANOMALY":282.2935,"EPHEMERIS_TYPE":0,"CLASSIFICATION_TYPE":"U","NORAD_CAT_ID":64438,"ELEMENT_SET_NO":999,"REV_AT_EPOCH":1210,"BSTAR":0.0015109566,"MEAN_MOTION_DOT":0.00060543,"MEAN_MOTION_DDOT":0},{"OBJECT_NAME":"STARLINK-34456","OBJECT_ID":"2025-130B","EPOCH":"2025-09-04T16:16:29.768448","MEAN_MOTION":15.39664833,"ECCENTRICITY":0.00012434,"INCLINATION":53.1558,"RA_OF_ASC_NODE":236.1167,"ARG_OF_PERICENTER":96.5543,"MEAN_ANOMALY":263.5603,"EPHEMERIS_TYPE":0,"CLASSIFICATION_TYPE":"U","NORAD_CAT_ID":64439,"ELEMENT_SET_NO":999,"REV_AT_EPOCH":1217,"BSTAR":0.0020874321,"MEAN_MOTION_DOT":0.00084147,"MEAN_MOTION_DDOT":0},{"OBJECT_NAME":"STARLINK-34410","OBJECT_ID":"2025-130C","EPOCH":"2025-09-04T19:16:46.632864","MEAN_MOTION":15.3961213,"ECCENTRICITY":0.00019236,"INCLINATION":53.1573,"RA_OF_ASC_NODE":235.4759,"ARG_OF_PERICENTER":94.8749,"MEAN_ANOMALY":265.2475,"EPHEMERIS_TYPE":0,"CLASSIFICATION_TYPE":"U","NORAD_CAT_ID":64440,"ELEMENT_SET_NO":999,"REV_AT_EPOCH":1219,"BSTAR":0.001635746,"MEAN_MOTION_DOT":0.00065578,"MEAN_MOTION_DDOT":0},{"OBJECT_NAME":"STARLINK-34453","OBJECT_ID":"2025-130D","EPOCH":"2025-09-04T16:03:07.820928","MEAN_MOTION":15.39628352,"ECCENTRICITY":0.00014288,"INCLINATION":53.1563,"RA_OF_ASC_NODE":236.0569,"ARG_OF_PERICENTER":76.6418,"MEAN_ANOMALY":283.4746,"EPHEMERIS_TYPE":0,"CLASSIFICATION_TYPE":"U","NORAD_CAT_ID":64441,"ELEMENT_SET_NO":999,"REV_AT_EPOCH":1217,"BSTAR":0.0012128944,"MEAN_MOTION_DOT":0.00048437,"MEAN_MOTION_DDOT":0},{"OBJECT_NAME":"STARLINK-34404","OBJECT_ID":"2025-130E","EPOCH":"2025-09-04T15:56:26.383200","MEAN_MOTION":15.39645862,"ECCENTRICITY":0.00013302,"INCLINATION":53.155,"RA_OF_ASC_NODE":236.0272,"ARG_OF_PERICENTER":107.82,"MEAN_ANOMALY":252.295,"EPHEMERIS_TYPE":0,"CLASSIFICATION_TYPE":"U","NORAD_CAT_ID":64442,"ELEMENT_SET_NO":999,"REV_AT_EPOCH":1217,"BSTAR":0.001184928,"MEAN_MOTION_DOT":0.00047332,"MEAN_MOTION_DDOT":0},{"OBJECT_NAME":"STARLINK-34403","OBJECT_ID":"2025-130F","EPOCH":"2025-09-04T06:02:08.754144","MEAN_MOTION":15.395994,"ECCENTRICITY":0.0001552,"INCLINATION":53.1572,"RA_OF_ASC_NODE":237.7131,"ARG_OF_PERICENTER":89.7324,"MEAN_ANOMALY":270.3859,"EPHEMERIS_TYPE":0,"CLASSIFICATION_TYPE":"U","NORAD_CAT_ID":64443,"ELEMENT_SET_NO":999,"REV_AT_EPOCH":1211,"BSTAR":0.0012957225,"MEAN_MOTION_DOT":0.00051746,"MEAN_MOTION_DDOT":0},{"OBJECT_NAME":"STARLINK-34399","OBJECT_ID":"2025-130G","EPOCH":"2025-09-04T05:55:27.739776","MEAN_MOTION":15.39627153,"ECCENTRICITY":0.00015411,"INCLINATION":53.1582,"RA_OF_ASC_NODE":237.6853,"ARG_OF_PERICENTER":82.0918,"MEAN_ANOMALY":278.0262,"EPHEMERIS_TYPE":0,"CLASSIFICATION_TYPE":"U","NORAD_CAT_ID":64444,"ELEMENT_SET_NO":999,"REV_AT_EPOCH":1211,"BSTAR":0.0012939942,"MEAN_MOTION_DOT":0.00051723,"MEAN_MOTION_DDOT":0},{"OBJECT_NAME":"STARLINK-34398","OBJECT_ID":"2025-130H","EPOCH":"2025-09-04T22:00:03.000096","MEAN_MOTION":15.39572006,"ECCENTRICITY":0.0001327,"INCLINATION":53.1559,"RA_OF_ASC_NODE":234.7838,"ARG_OF_PERICENTER":104.9907,"MEAN_ANOMALY":241.2453,"EPHEMERIS_TYPE":0,"CLASSIFICATION_TYPE":"U","NORAD_CAT_ID":64445,"ELEMENT_SET_NO":999,"REV_AT_EPOCH":589,"BSTAR":0.0027187319,"MEAN_MOTION_DOT":0.00109752,"MEAN_MOTION_DDOT":0},{"OBJECT_NAME":"STARLINK-34402","OBJECT_ID":"2025-130J","EPOCH":"2025-09-04T09:29:09.507552","MEAN_MOTION":15.39607623,"ECCENTRICITY":0.00011683,"INCLINATION":53.1569,"RA_OF_ASC_NODE":237.1908,"ARG_OF_PERICENTER":81.0715,"MEAN_ANOMALY":279.0422,"EPHEMERIS_TYPE":0,"CLASSIFICATION_TYPE":"U","NORAD_CAT_ID":64446,"ELEMENT_SET_NO":999,"REV_AT_EPOCH":1213,"BSTAR":0.0011513576,"MEAN_MOTION_DOT":0.00045913,"MEAN_MOTION_DDOT":0},{"OBJECT_NAME":"STARLINK-34450","OBJECT_ID":"2025-130K","EPOCH":"2025-09-04T09:22:28.641792","MEAN_MOTION":15.39611994,"ECCENTRICITY":0.00013577,"INCLINATION":53.1562,"RA_OF_ASC_NODE":237.1615,"ARG_OF_PERICENTER":84.3507,"MEAN_ANOMALY":275.7652,"EPHEMERIS_TYPE":0,"CLASSIFICATION_TYPE":"U","NORAD_CAT_ID":64447,"ELEMENT_SET_NO":999,"REV_AT_EPOCH":1213,"BSTAR":0.00098880909,"MEAN_MOTION_DOT":0.00039346,"MEAN_MOTION_DDOT":0},{"OBJECT_NAME":"STARLINK-34433","OBJECT_ID":"2025-130L","EPOCH":"2025-09-04T09:15:47.246400","MEAN_MOTION":15.39611965,"ECCENTRICITY":0.00011958,"INCLINATION":53.1565,"RA_OF_ASC_NODE":237.1326,"ARG_OF_PERICENTER":59.8842,"MEAN_ANOMALY":300.2281,"EPHEMERIS_TYPE":0,"CLASSIFICATION_TYPE":"U","NORAD_CAT_ID":64448,"ELEMENT_SET_NO":999,"REV_AT_EPOCH":1213,"BSTAR":0.0011347672,"MEAN_MOTION_DOT":0.00045248,"MEAN_MOTION_DDOT":0},{"OBJECT_NAME":"STARLINK-34459","OBJECT_ID":"2025-130M","EPOCH":"2025-09-04T05:48:46.287360","MEAN_MOTION":15.39631198,"ECCENTRICITY":0.00011113,"INCLINATION":53.157,"RA_OF_ASC_NODE":237.6546,"ARG_OF_PERICENTER":74.4282,"MEAN_ANOMALY":285.6845,"EPHEMERIS_TYPE":0,"CLASSIFICATION_TYPE":"U","NORAD_CAT_ID":64449,"ELEMENT_SET_NO":999,"REV_AT_EPOCH":1211,"BSTAR":0.00123723,"MEAN_MOTION_DOT":0.00049428,"MEAN_MOTION_DDOT":0},{"OBJECT_NAME":"STARLINK-34361","OBJECT_ID":"2025-130N","EPOCH":"2025-09-04T05:42:05.222880","MEAN_MOTION":15.3961713,"ECCENTRICITY":0.00013503,"INCLINATION":53.1583,"RA_OF_ASC_NODE":237.6258,"ARG_OF_PERICENTER":63.5305,"MEAN_ANOMALY":296.5838,"EPHEMERIS_TYPE":0,"CLASSIFICATION_TYPE":"U","NORAD_CAT_ID":64450,"ELEMENT_SET_NO":999,"REV_AT_EPOCH":1328,"BSTAR":0.0010839264,"MEAN_MOTION_DOT":0.00043198,"MEAN_MOTION_DDOT":0},{"OBJECT_NAME":"STARLINK-34392","OBJECT_ID":"2025-130P","EPOCH":"2025-09-04T07:08:52.655424","MEAN_MOTION":15.39623503,"ECCENTRICITY":0.00016653,"INCLINATION":53.1576,"RA_OF_ASC_NODE":237.2891,"ARG_OF_PERICENTER":70.2848,"MEAN_ANOMALY":289.8336,"EPHEMERIS_TYPE":0,"CLASSIFICATION_TYPE":"U","NORAD_CAT_ID":64451,"ELEMENT_SET_NO":999,"REV_AT_EPOCH":1212,"BSTAR":0.001813961,"MEAN_MOTION_DOT":0.00072863,"MEAN_MOTION_DDOT":0},{"OBJECT_NAME":"STARLINK-34367","OBJECT_ID":"2025-130Q","EPOCH":"2025-09-04T09:35:21.717024","MEAN_MOTION":15.39610382,"ECCENTRICITY":0.00012972,"INCLINATION":53.1568,"RA_OF_ASC_NODE":237.2161,"ARG_OF_PERICENTER":80.0606,"MEAN_ANOMALY":280.0545,"EPHEMERIS_TYPE":0,"CLASSIFICATION_TYPE":"U","NORAD_CAT_ID":64452,"ELEMENT_SET_NO":999,"REV_AT_EPOCH":1213,"BSTAR":0.0011364959,"MEAN_MOTION_DOT":0.00045315,"MEAN_MOTION_DDOT":0}]
