STARLINK-34507          
1 64437U 25129AB  25247.91857064  .00005492  00000+0  46760-3 0  9998
2 64437  70.0016 182.7261 0002877 265.2611  94.8220 14.98335991 13465
STARLINK-34465          
1 64438U 25130A   25247.22838734  .00060543  00000+0  15110-2 0  9990
2 64438  53.1588 238.2863 0002252  77.8322 282.2935 15.39631098 12109
STARLINK-34456          
1 64439U 25130B   25247.67812232  .00084147  00000+0  20874-2 0  9994
2 64439  53.1558 236.1167 0001243  96.5543 263.5603 15.39664833 12177
STARLINK-34410          
1 64440U 25130C   25247.80331751  .00065578  00000+0  16357-2 0  9991
2 64440  53.1573 235.4759 0001923  94.8749 265.2475 15.39612130 12190
STARLINK-34453          
1 64441U 25130D   25247.66884052  .00048437  00000+0  12129-2 0  9991
2 64441  53.1563 236.0569 0001428  76.6418 283.4746 15.39628352 12171
STARLINK-34404          
1 64442U 25130E   25247.66419425  .00047332  00000+0  11849-2 0  9991
2 64442  53.1550 236.0272 0001330 107.8200 252.2950 15.39645862 12173
STARLINK-34403          
1 64443U 25130F   25247.25149021  .00051746  00000+0  12957-2 0  9994
2 64443  53.1572 237.7131 0001552  89.7324 270.3859 15.39599400 12110
STARLINK-34399          
1 64444U 25130G   25247.24684884  .00051723  00000+0  12940-2 0  9992
2 64444  53.1582 237.6853 0001541  82.0918 278.0262 15.39627153 12115
STARLINK-34398          
1 64445U 25130H   25247.91670139  .00109752  00000+0  27187-2 0  9990
2 64445  53.1559 234.7838 0001327 104.9907 241.2453 15.39572006  5892
STARLINK-34402          
1 64446U 25130J   25247.39524893  .00045913  00000+0  11514-2 0  9993
2 64446  53.1569 237.1908 0001168  81.0715 279.0422 15.39607623 12138
STARLINK-34450          
1 64447U 25130K   25247.39060928  .00039346  00000+0  98881-3 0  9994
2 64447  53.1562 237.1615 0001357  84.3507 275.7652 15.39611994 12136
STARLINK-34433          
1 64448U 25130L   25247.38596350  .00045248  00000+0  11348-2 0  9997
2 64448  53.1565 237.1326 0001195  59.8842 300.2281 15.39611965 12138
STARLINK-34459          
1 64449U 25130M   25247.24220240  .00049428  00000+0  12372-2 0  9997
2 64449  53.1570 237.6546 0001111  74.4282 285.6845 15.39631198 12113
STARLINK-34361          
1 64450U 25130N   25247.23756045  .00043198  00000+0  10839-2 0  9999
2 64450  53.1583 237.6258 0001350  63.5305 296.5838 15.39617130 13281
STARLINK-34392          
1 64451U 25130P   25247.29783166  .00072863  00000+0  18140-2 0  9994
2 64451  53.1576 237.2891 0001665  70.2848 289.8336 15.39623503 12120
STARLINK-34367          
1 64452U 25130Q   25247.39955691  .00045315  00000+0  11365-2 0  9994
2 64452  53.1568 237.2161 0001297  80.0606 280.0545 15.39610382 12131
